*******************************************************************************
Ephemeris / WWW_USER Mon Jul 15 19:19:09 2024 Pasadena, USA      / Horizons    
*******************************************************************************
Target body name: (2018 YU2)                      {source: JPL#5}
Center body name: Earth (399)                     {source: DE441}
Center-site name: Gemini South Obs., Cerro Pachon
*******************************************************************************
Start time      : A.D. 2018-Oct-19 23:04:00.0000 UT      
Stop  time      : A.D. 2018-Oct-20 09:51:00.0000 UT      
Step-size       : 1 minutes
*******************************************************************************
Target pole/equ : undefined
Target radii    : undefined                                                    
Center geodetic : 289.2634, -30.2406227, 2.71233  {E-lon(deg),Lat(deg),Alt(km)}
Center cylindric: 289.2634,5517.21435,-3194.81213 {E-lon(deg),Dxy(km),Dz(km)}
Center pole/equ : ITRF93                          {East-longitude positive}
Center radii    : 6378.137, 6378.137, 6356.752 km {Equator_a, b, pole_c}       
Target primary  : Sun
Vis. interferer : MOON (R_eq= 1737.400) km        {source: DE441}
Rel. light bend : Sun                             {source: DE441}
Rel. lght bnd GM: 1.3271E+11 km^3/s^2                                          
Small-body perts: Yes                             {source: SB441-N16}
Atmos refraction: NO (AIRLESS)
RA format       : HMS
Time format     : CAL 
Calendar mode   : Mixed Julian/Gregorian
RTS-only print  : NO       
EOP file        : eop.240715.p241008                                           
EOP coverage    : DATA-BASED 1962-JAN-20 TO 2024-JUL-15. PREDICTS-> 2024-OCT-07
Units conversion: 1 au= 149597870.700 km, c= 299792.458 km/s, 1 day= 86400.0 s 
Table cut-offs 1: Elevation (-90.0deg=NO ),Airmass (>38.000=NO), Daylight (YES)
Table cut-offs 2: Solar elongation (  0.0,180.0=NO ),Local Hour Angle( 0.0=NO )
Table cut-offs 3: RA/DEC angular rate (     0.0=NO )                           
*******************************************************************************
Initial IAU76/J2000 heliocentric ecliptic osculating elements (au, days, deg.):
  EPOCH=  2458477.5 ! 2018-Dec-25.00 (TDB)         Residual RMS= .22887        
   EC= .1533598773405833   QR= .920984914841031    TP= 2458549.1486254167      
   OM= 279.4515303175068   W=  253.4059234937716   IN= 2.850769624588425       
  Equivalent ICRF heliocentric cartesian coordinates (au, au/d):
   X=-6.842297687009524E-02  Y= 9.429126817220428E-01  Z= 4.143187104036840E-01
  VX=-1.695115058702848E-02 VY=-2.997207899955317E-03 VZ=-2.239432528215744E-03
Asteroid physical parameters (km, seconds, rotational period in hours):        
   GM= n.a.                RAD= n.a.               ROTPER= n.a.                
   H= 26.5                 G= .150                 B-V= n.a.                   
                           ALBEDO= n.a.            STYP= n.a.                  
*******************************************************************************
 Date__(UT)__HR:MN     R.A._________(ICRF)_________DEC
******************************************************
$$SOE
 2018-Oct-20 03:10  m  05 40 51.341398 +32 38 22.37134
 2018-Oct-20 03:11  m  05 40 51.433531 +32 38 22.64369
 2018-Oct-20 03:12  m  05 40 51.525628 +32 38 22.91600
 2018-Oct-20 03:13  m  05 40 51.617688 +32 38 23.18826
 2018-Oct-20 03:14  m  05 40 51.709713 +32 38 23.46047
 2018-Oct-20 03:15  m  05 40 51.801702 +32 38 23.73263
 2018-Oct-20 03:16  m  05 40 51.893655 +32 38 24.00474
 2018-Oct-20 03:17  m  05 40 51.985572 +32 38 24.27681
 2018-Oct-20 03:18  m  05 40 52.077454 +32 38 24.54881
 2018-Oct-20 03:19  m  05 40 52.169299 +32 38 24.82077
 2018-Oct-20 03:20  m  05 40 52.261109 +32 38 25.09267
 2018-Oct-20 03:21  m  05 40 52.352883 +32 38 25.36451
 2018-Oct-20 03:22  m  05 40 52.444621 +32 38 25.63630
 2018-Oct-20 03:23  m  05 40 52.536323 +32 38 25.90803
 2018-Oct-20 03:24  m  05 40 52.627990 +32 38 26.17970
 2018-Oct-20 03:25  m  05 40 52.719621 +32 38 26.45131
 2018-Oct-20 03:26  m  05 40 52.811217 +32 38 26.72287
 2018-Oct-20 03:27  m  05 40 52.902777 +32 38 26.99435
 2018-Oct-20 03:28  m  05 40 52.994302 +32 38 27.26578
 2018-Oct-20 03:29  m  05 40 53.085791 +32 38 27.53714
 2018-Oct-20 03:30  m  05 40 53.177245 +32 38 27.80844
 2018-Oct-20 03:31  m  05 40 53.268663 +32 38 28.07967
 2018-Oct-20 03:32  m  05 40 53.360046 +32 38 28.35083
 2018-Oct-20 03:33  m  05 40 53.451394 +32 38 28.62193
 2018-Oct-20 03:34  m  05 40 53.542706 +32 38 28.89295
 2018-Oct-20 03:35  m  05 40 53.633983 +32 38 29.16391
 2018-Oct-20 03:36  m  05 40 53.725225 +32 38 29.43479
 2018-Oct-20 03:37  m  05 40 53.816432 +32 38 29.70560
 2018-Oct-20 03:38  m  05 40 53.907604 +32 38 29.97634
 2018-Oct-20 03:39  m  05 40 53.998740 +32 38 30.24701
 2018-Oct-20 03:40  m  05 40 54.089842 +32 38 30.51759
 2018-Oct-20 03:41  m  05 40 54.180909 +32 38 30.78811
 2018-Oct-20 03:42  m  05 40 54.271940 +32 38 31.05854
 2018-Oct-20 03:43  m  05 40 54.362937 +32 38 31.32890
 2018-Oct-20 03:44  m  05 40 54.453899 +32 38 31.59917
 2018-Oct-20 03:45  m  05 40 54.544827 +32 38 31.86937
 2018-Oct-20 03:46  r  05 40 54.635719 +32 38 32.13948
 2018-Oct-20 03:47  m  05 40 54.726577 +32 38 32.40951
 2018-Oct-20 03:48  m  05 40 54.817400 +32 38 32.67946
 2018-Oct-20 03:49  m  05 40 54.908189 +32 38 32.94932
 2018-Oct-20 03:50  m  05 40 54.998943 +32 38 33.21910
 2018-Oct-20 03:51  m  05 40 55.089663 +32 38 33.48879
 2018-Oct-20 03:52  m  05 40 55.180348 +32 38 33.75839
 2018-Oct-20 03:53  m  05 40 55.270999 +32 38 34.02791
 2018-Oct-20 03:54  m  05 40 55.361615 +32 38 34.29733
 2018-Oct-20 03:55  m  05 40 55.452198 +32 38 34.56666
 2018-Oct-20 03:56  m  05 40 55.542746 +32 38 34.83590
 2018-Oct-20 03:57  m  05 40 55.633260 +32 38 35.10505
 2018-Oct-20 03:58  m  05 40 55.723739 +32 38 35.37411
 2018-Oct-20 03:59  m  05 40 55.814185 +32 38 35.64307
 2018-Oct-20 04:00  m  05 40 55.904597 +32 38 35.91193
 2018-Oct-20 04:01  m  05 40 55.994975 +32 38 36.18070
 2018-Oct-20 04:02  m  05 40 56.085319 +32 38 36.44936
 2018-Oct-20 04:03  m  05 40 56.175629 +32 38 36.71793
 2018-Oct-20 04:04  m  05 40 56.265906 +32 38 36.98641
 2018-Oct-20 04:05  m  05 40 56.356149 +32 38 37.25477
 2018-Oct-20 04:06  m  05 40 56.446358 +32 38 37.52304
 2018-Oct-20 04:07  m  05 40 56.536534 +32 38 37.79121
 2018-Oct-20 04:08  m  05 40 56.626676 +32 38 38.05927
 2018-Oct-20 04:09  m  05 40 56.716785 +32 38 38.32722
 2018-Oct-20 04:10  m  05 40 56.806860 +32 38 38.59507
 2018-Oct-20 04:11  m  05 40 56.896902 +32 38 38.86282
 2018-Oct-20 04:12  m  05 40 56.986911 +32 38 39.13045
 2018-Oct-20 04:13  m  05 40 57.076887 +32 38 39.39798
 2018-Oct-20 04:14  m  05 40 57.166829 +32 38 39.66540
 2018-Oct-20 04:15  m  05 40 57.256739 +32 38 39.93270
 2018-Oct-20 04:16  m  05 40 57.346615 +32 38 40.19990
 2018-Oct-20 04:17  m  05 40 57.436459 +32 38 40.46698
 2018-Oct-20 04:18  m  05 40 57.526270 +32 38 40.73395
 2018-Oct-20 04:19  m  05 40 57.616048 +32 38 41.00080
 2018-Oct-20 04:20  m  05 40 57.705794 +32 38 41.26754
 2018-Oct-20 04:21  m  05 40 57.795506 +32 38 41.53416
 2018-Oct-20 04:22  m  05 40 57.885187 +32 38 41.80067
 2018-Oct-20 04:23  m  05 40 57.974835 +32 38 42.06705
 2018-Oct-20 04:24  m  05 40 58.064450 +32 38 42.33332
 2018-Oct-20 04:25  m  05 40 58.154033 +32 38 42.59947
 2018-Oct-20 04:26  m  05 40 58.243584 +32 38 42.86549
 2018-Oct-20 04:27  m  05 40 58.333103 +32 38 43.13140
 2018-Oct-20 04:28  m  05 40 58.422589 +32 38 43.39718
 2018-Oct-20 04:29  m  05 40 58.512044 +32 38 43.66283
 2018-Oct-20 04:30  m  05 40 58.601467 +32 38 43.92836
 2018-Oct-20 04:31  m  05 40 58.690858 +32 38 44.19377
 2018-Oct-20 04:32  m  05 40 58.780217 +32 38 44.45904
 2018-Oct-20 04:33  m  05 40 58.869544 +32 38 44.72419
 2018-Oct-20 04:34  m  05 40 58.958840 +32 38 44.98921
 2018-Oct-20 04:35  m  05 40 59.048104 +32 38 45.25411
 2018-Oct-20 04:36  m  05 40 59.137336 +32 38 45.51887
 2018-Oct-20 04:37  m  05 40 59.226538 +32 38 45.78349
 2018-Oct-20 04:38  m  05 40 59.315708 +32 38 46.04799
 2018-Oct-20 04:39  m  05 40 59.404846 +32 38 46.31235
 2018-Oct-20 04:40  m  05 40 59.493954 +32 38 46.57658
 2018-Oct-20 04:41  m  05 40 59.583030 +32 38 46.84067
 2018-Oct-20 04:42  m  05 40 59.672076 +32 38 47.10463
 2018-Oct-20 04:43  m  05 40 59.761091 +32 38 47.36845
 2018-Oct-20 04:44  m  05 40 59.850075 +32 38 47.63213
 2018-Oct-20 04:45  m  05 40 59.939028 +32 38 47.89568
 2018-Oct-20 04:46  m  05 41 00.027950 +32 38 48.15908
 2018-Oct-20 04:47  m  05 41 00.116842 +32 38 48.42234
 2018-Oct-20 04:48  m  05 41 00.205704 +32 38 48.68546
 2018-Oct-20 04:49  m  05 41 00.294535 +32 38 48.94844
 2018-Oct-20 04:50  m  05 41 00.383336 +32 38 49.21127
 2018-Oct-20 04:51  m  05 41 00.472106 +32 38 49.47396
 2018-Oct-20 04:52  m  05 41 00.560847 +32 38 49.73651
 2018-Oct-20 04:53  m  05 41 00.649558 +32 38 49.99891
 2018-Oct-20 04:54  m  05 41 00.738238 +32 38 50.26116
 2018-Oct-20 04:55  m  05 41 00.826889 +32 38 50.52326
 2018-Oct-20 04:56  m  05 41 00.915510 +32 38 50.78522
 2018-Oct-20 04:57  m  05 41 01.004102 +32 38 51.04702
 2018-Oct-20 04:58  m  05 41 01.092663 +32 38 51.30868
 2018-Oct-20 04:59  m  05 41 01.181196 +32 38 51.57018
 2018-Oct-20 05:00  m  05 41 01.269699 +32 38 51.83153
 2018-Oct-20 05:01  m  05 41 01.358173 +32 38 52.09273
 2018-Oct-20 05:02  m  05 41 01.446617 +32 38 52.35378
 2018-Oct-20 05:03  m  05 41 01.535033 +32 38 52.61467
 2018-Oct-20 05:04  m  05 41 01.623420 +32 38 52.87540
 2018-Oct-20 05:05  m  05 41 01.711777 +32 38 53.13598
 2018-Oct-20 05:06  m  05 41 01.800106 +32 38 53.39640
 2018-Oct-20 05:07  m  05 41 01.888406 +32 38 53.65666
 2018-Oct-20 05:08  m  05 41 01.976678 +32 38 53.91676
 2018-Oct-20 05:09  m  05 41 02.064921 +32 38 54.17671
 2018-Oct-20 05:10  m  05 41 02.153136 +32 38 54.43649
 2018-Oct-20 05:11  m  05 41 02.241322 +32 38 54.69611
 2018-Oct-20 05:12  m  05 41 02.329481 +32 38 54.95557
